[{"OBJECT_NAME":"STARLINK-1983","OBJECT_ID":"2021-012L","EPOCH":"2026-03-09T23:43:29.316000","MEAN_MOTION":15.29345071,"ECCENTRICITY":0.00014952,"INCLINATION":53.1564,"RA_OF_ASC_NODE":48.1538,"ARG_OF_PERICENTER":93.056,"MEAN_ANOMALY":267.0611,"EPHEMERIS_TYPE":0,"CLASSIFICATION_TYPE":"U","NORAD_CAT_ID":47630,"ELEMENT_SET_NO":999,"REV_AT_EPOCH":28032,"BSTAR":-0.00037078918,"MEAN_MOTION_DOT":-0.00011036,"MEAN_MOTION_DDOT":0},{"OBJECT_NAME":"OBJECT B","OBJECT_ID":"2024-205B","EPOCH":"2026-03-09T23:46:05.115936","MEAN_MOTION":15.28158697,"ECCENTRICITY":0.00105957,"INCLINATION":97.4192,"RA_OF_ASC_NODE":146.9311,"ARG_OF_PERICENTER":34.0947,"MEAN_ANOMALY":326.0972,"EPHEMERIS_TYPE":0,"CLASSIFICATION_TYPE":"U","NORAD_CAT_ID":61895,"ELEMENT_SET_NO":999,"REV_AT_EPOCH":7352,"BSTAR":0.00054154807,"MEAN_MOTION_DOT":0.00014827,"MEAN_MOTION_DDOT":0}]
